ORBCOMM FM06            
1 25118U 97084G   26157.60390906  .00001473  00000+0  43588-3 0  9994
2 25118  45.0133 103.6590 0002007 298.9421 230.5330 14.47536333492856
ORBCOMM FM04            
1 25159U 98007C   26157.52526421  .00001051  00000+0  40512-3 0  9995
2 25159 107.9627 147.4760 0041013 343.1497  16.8279 14.35721603475062
ORBCOMM FM19            
1 25415U 98046C   26157.13701396  .00001118  00000+0  40085-3 0  9995
2 25415  44.9944 296.0858 0004146 237.6207 292.1168 14.39478857455181
ORBCOMM FM20            
1 25416U 98046D   26157.10605475  .00000816  00000+0  31359-3 0  9992
2 25416  44.9949 304.0335 0001519 212.7574 147.3180 14.38051622455191
ORBCOMM FM27            
1 25481U 98053G   26157.35817167  .00001079  00000+0  39118-3 0  9995
2 25481  45.0066  26.7866 0000256  41.5364 318.5504 14.39121247448673
ORBCOMM FM32            
1 25982U 99065C   26157.44591547  .00000624  00000+0  25555-3 0  9991
2 25982  45.0145 224.0828 0005217 341.0890  18.9763 14.37118027385546
ORBCOMM FM109           
1 40086U 14040A   26156.66083976  .00000525  00000+0  14730-3 0  9991
2 40086  47.0015 145.9819 0001543 212.1666 147.9126 14.58830530632661
ORBCOMM FM114           
1 41179U 15081A   26152.97982418  .00000602  00000+0  16356-3 0  9992
2 41179  47.0052  73.9009 0001546 135.7645 224.3365 14.58838571555535
ORBCOMM FM110           
1 41182U 15081D   26157.62551860  .00000807  00000+0  20698-3 0  9997
2 41182  47.0028  51.3801 0002966  16.7892 343.3092 14.58863273556088
ORBCOMM FM118           
1 41183U 15081E   26156.97489096  .00003194  00000+0  71149-3 0  9995
2 41183  47.0105  54.7867 0003166 344.4390  15.6398 14.58872006556094
ORBCOMM FM112           
1 41184U 15081F   26157.18512115  .00000802  00000+0  20584-3 0  9999
2 41184  47.0001 322.2721 0003012 168.1869 191.9088 14.58888264557340
ORBCOMM FM113           
1 41185U 15081G   26157.16141366  .00000590  00000+0  16111-3 0  9999
2 41185  47.0018 322.7551 0001619 179.1562 180.9327 14.58846900557321
ORBCOMM FM108           
1 41187U 15081J   26156.50751746  .00000700  00000+0  18440-3 0  9997
2 41187  47.0046 237.4186 0002310 171.2053 188.8874 14.58857926558377
ORBCOMM FM117           
1 41188U 15081K   26157.50030620  .00000653  00000+0  17449-3 0  9995
2 41188  47.0007 231.3617 0002902 177.9950 182.0948 14.58856172558564
ORBCOMM FM116           
1 41189U 15081L   26157.13842252  .00000831  00000+0  21195-3 0  9998
2 41189  47.0034 322.8622 0001241 356.9601   3.1277 14.58866650557327
